[{"OBJECT_NAME":"SORAYA","OBJECT_ID":"2024-015A","EPOCH":"2026-03-09T23:47:27.347136","MEAN_MOTION":14.4267567,"ECCENTRICITY":0.00145543,"INCLINATION":64.5174,"RA_OF_ASC_NODE":9.0228,"ARG_OF_PERICENTER":231.7358,"MEAN_ANOMALY":128.2419,"EPHEMERIS_TYPE":0,"CLASSIFICATION_TYPE":"U","NORAD_CAT_ID":58817,"ELEMENT_SET_NO":999,"REV_AT_EPOCH":11246,"BSTAR":9.0214372e-5,"MEAN_MOTION_DOT":1.94e-6,"MEAN_MOTION_DDOT":0},{"OBJECT_NAME":"DMSP 5D-2 F14 DEB","OBJECT_ID":"1997-012H","EPOCH":"2026-03-09T17:16:32.066976","MEAN_MOTION":14.43284351,"ECCENTRICITY":0.00138603,"INCLINATION":98.9419,"RA_OF_ASC_NODE":128.2371,"ARG_OF_PERICENTER":226.7558,"MEAN_ANOMALY":133.2474,"EPHEMERIS_TYPE":0,"CLASSIFICATION_TYPE":"U","NORAD_CAT_ID":62937,"ELEMENT_SET_NO":999,"REV_AT_EPOCH":6359,"BSTAR":0.010744194,"MEAN_MOTION_DOT":0.00036378,"MEAN_MOTION_DDOT":0}]
